ARIANE 40 R/B           
1 20443U 90005H   25349.93596921  .00000296  00000+0  10776-3 0  9994
2 20443  98.3241  48.0236 0011284  97.1081 263.1391 14.39801102880759
DELTA 2 R/B(1)          
1 20453U 90008B   25349.72256287  .00032051  00000+0  50923-3 0  9995
2 20453  35.6078   1.2691 0111270 205.7509 153.7655 15.45467931913093
COSMOS 2058             
1 20465U 90010A   25349.87148797  .00004292  00000+0  25875-3 0  9997
2 20465  82.4673 129.9494 0008490 259.8417 100.1856 15.10502643929585
SL-14 R/B               
1 20466U 90010B   25349.98310021  .00000453  00000+0  52151-4 0  9994
2 20466  82.5020 346.0008 0018945 211.8792 148.1278 14.83474315916079
SL-14 R/B               
1 20511U 90018B   25349.92043222  .00000505  00000+0  60464-4 0  9997
2 20511  82.5212 301.3915 0016758  13.2536 346.9115 14.82050015910173
HST                     
1 20580U 90037B   25349.92697688  .00005667  00000+0  19308-3 0  9999
2 20580  28.4681 250.7951 0001830 280.0887  79.9502 15.28099791760488
SL-16 R/B               
1 20625U 90046B   25349.78568087 -.00000207  00000+0 -82404-4 0  9998
2 20625  70.9991 114.1247 0011879  67.6643 292.5738 14.15000653836525
COSMOS 2084             
1 20663U 90055A   25349.95657131  .00002282  00000+0  17252-3 0  9999
2 20663  62.7903 261.0319 0031224 175.0793 185.0621 15.05039777923711
SL-6 R/B(2)             
1 20666U 90055D   25349.89414017  .00001570  00000+0  13029-3 0  9996
2 20666  62.7819 178.6975 0013038 311.2466  48.7509 15.03089722925596
SL-8 R/B                
1 20775U 90078B   25349.96317173  .00017474  00000+0  54046-3 0  9999
2 20775  82.9045 326.4249 0371439 295.0480  61.2606 14.86078309796858
SL-8 R/B                
1 21088U 91006B   25349.80326325  .00000077  00000+0  62459-4 0  9990
2 21088  82.9424 232.4343 0021182 270.7445 158.8291 13.77490430752527
OKEAN-3                 
1 21397U 91039A   25349.94192271  .00003228  00000+0  23050-3 0  9999
2 21397  82.5178  57.9483 0013188 254.3658 105.6114 15.04142488852443
COSMOS 2151             
1 21422U 91042A   25349.95931766  .00001860  00000+0  14848-3 0  9998
2 21422  82.4957 164.4004 0012320 348.9676  11.1276 14.99698611850643
SL-14 R/B               
1 21423U 91042B   25349.95591248  .00000441  00000+0  52887-4 0  9996
2 21423  82.4929 298.7070 0017740 151.4858 208.7331 14.81741881840674
ERS-1                   
1 21574U 91050A   25349.93460148  .00000332  00000+0  12078-3 0  9990
2 21574  98.7904   1.0694 0033041  90.9033 269.5940 14.39367262803686
ARIANE 40 R/B           
1 21610U 91050F   25349.76851174  .00000340  00000+0  11442-3 0  9998
2 21610  98.2163  40.0897 0002594 351.0233   9.0910 14.42815843806896
INTERCOSMOS 25          
1 21819U 91086A   25349.93780115  .00001817  00000+0  36173-3 0  9991
2 21819  82.6067   0.6422 1486465 297.5025  48.2702 12.11738532486543
SL-8 R/B                
1 21876U 92008B   25349.95106757  .00000135  00000+0  12357-3 0  9995
2 21876  82.9266 330.0575 0034993  10.9509  47.4005 13.75959625697907
SL-8 R/B                
1 21938U 92020B   25349.88590553  .00000113  00000+0  10090-3 0  9999
2 21938  82.9302 215.9814 0029108 169.3472 201.3942 13.75527794689612
USA 81                  
1 21949U 92023A   25349.89828033  .00000201  00000+0  67261-4 0  9993
2 21949  85.0079 179.7546 0001280  68.9814 291.1515 14.32328018 82794
COSMOS 2219             
1 22219U 92076A   25349.90789370  .00000082  00000+0  67892-4 0  9991
2 22219  71.0572 193.2100 0019136 322.5726  37.4062 14.14062933706539
SL-16 R/B               
1 22220U 92076B   25349.77499284  .00000111  00000+0  79471-4 0  9999
2 22220  71.0005   5.1381 0014613 229.9087 303.3063 14.16841219709947
COSMOS 2221             
1 22236U 92080A   25349.76132823  .00001617  00000+0  14242-3 0  9999
2 22236  82.5042 359.4333 0016185 112.4071 247.8868 14.95772210768243
SL-16 R/B               
1 22285U 92093B   25349.78294904  .00000337  00000+0  19677-3 0  9993
2 22285  71.0200 180.4075 0002225  61.3624 298.7723 14.15431672701289
COSMOS 2228             
1 22286U 92094A   25349.89928694  .00001676  00000+0  14401-3 0  9994
2 22286  82.5176 317.5110 0016728 219.7632 140.2365 14.96745165763525
SL-16 R/B               
1 22566U 93016B   25349.81499357  .00000081  00000+0  66291-4 0  9995
2 22566  71.0080  31.3449 0007962  91.6336 268.5699 14.15287139690309
COSMOS 2242             
1 22626U 93024A   25349.71231289  .00001490  00000+0  12995-3 0  9994
2 22626  82.5187 347.0037 0015135 223.2284 136.7751 14.96119293767839
SL-16 R/B               
1 22803U 93059B   25349.90831425 -.00000154  00000+0 -52215-4 0  9996
2 22803  70.9883 187.8047 0018151 331.1032  28.9085 14.17213148667661
ARIANE 40 R/B           
1 22830U 93061H   25349.90043686  .00000252  00000+0  10834-3 0  9990
2 22830  98.5074  55.3728 0011063 166.8566 193.2909 14.32803450682109
COSMOS 2278             
1 23087U 94023A   25349.71852841 -.00000205  00000+0 -82570-4 0  9991
2 23087  71.0538 350.7788 0008165 174.7404 185.3806 14.14349577632930
SL-16 R/B               
1 23088U 94023B   25349.94466281 -.00000123  00000+0 -39046-4 0  9995
2 23088  71.0000 246.7556 0001555  17.2278 342.8897 14.15002828634240
SL-16 R/B               
1 23343U 94074B   25349.87499933  .00000471  00000+0  69972-4 0  9992
2 23343  97.7200  19.0550 0007721 127.0732  45.8664 14.79293156674851
SL-16 R/B               
1 23405U 94077B   25349.95894562  .00000221  00000+0  13764-3 0  9990
2 23405  70.9812 168.6410 0004762 282.0720  77.9869 14.15551708604383
ARIANE 40+ R/B          
1 23561U 95021B   25349.95512419  .00000298  00000+0  10903-3 0  9997
2 23561  98.4649  57.5052 0007345  41.3948 131.5074 14.39697901607194
SL-16 R/B               
1 23705U 95058B   25349.74978000 -.00000100  00000+0 -26569-4 0  9996
2 23705  71.0225 356.4848 0014976 251.6264 108.3231 14.15484062555971
SL-16 R/B               
1 24298U 96051B   25349.74643741  .00000024  00000+0  39917-4 0  9993
2 24298  70.7595 352.9195 0019445 257.6473 102.2470 14.12397215509792
ORBVIEW 2 (SEASTAR)     
1 24883U 97037A   25349.91265175  .00000287  00000+0  11621-3 0  9990
2 24883  98.8457 147.0669 0001518 329.8091  30.3006 14.35419534496457
SL-16 R/B               
1 25400U 98043G   25349.88562557  .00000065  00000+0  46060-4 0  9994
2 25400  98.8129 297.7213 0008797 256.5143 103.5056 14.26026432427045
SL-16 R/B               
1 25407U 98045B   25349.73133268 -.00000101  00000+0 -27099-4 0  9994
2 25407  71.0115 358.1353 0006744 172.5529 187.5696 14.16174543415216
ISS (ZARYA)             
1 25544U 98067A   25349.89461712  .00006813  00000+0  12896-3 0  9997
2 25544  51.6305 126.8563 0003169 254.4589 105.6050 15.49611341543340
CZ-4B R/B               
1 25732U 99025C   25349.87535705  .00000068  00000+0  53816-4 0  9997
2 25732  98.6765  31.0852 0036409 224.7833 308.5717 14.18244366376288
OKEAN-O                 
1 25860U 99039A   25349.89922592  .00000736  00000+0  10378-3 0  9997
2 25860  97.9601  45.5736 0000882 105.0894 255.0416 14.80166800421992
SL-16 R/B               
1 25861U 99039B   25349.89127569  .00000592  00000+0  82173-4 0  9992
2 25861  98.0124  44.0427 0015173 164.5478 195.6201 14.81591036424452
DELTA 2 R/B             
1 25876U 99041E   25349.82929486  .00001127  00000+0  22126-3 0  9998
2 25876  51.7616 276.1129 0504633 100.8750 264.9370 14.11409234351184
HELIOS 1B               
1 25977U 99064A   25349.69640462  .00001269  00000+0  14719-3 0  9990
2 25977  98.1757 244.4497 0001558  41.1331 319.0001 14.87295619672770
TERRA                   
1 25994U 99068A   25349.90600187  .00000462  00000+0  10357-3 0  9995
2 25994  97.9746  41.4743 0003602  88.3629  84.4744 14.60905450382843
SL-16 R/B               
1 26070U 00006B   25349.93689562 -.00000243  00000+0 -99150-4 0  9990
2 26070  71.0027 273.9352 0018552 304.3317  55.6050 14.15809707336709
TITAN 4B R/B            
1 26474U 00047B   25349.92503018  .00002767  00000+0  18107-3 0  9996
2 26474  67.9895 275.9089 0038716 140.6804 219.7168 15.08806055380279
ENVISAT                 
1 27386U 02009A   25349.88696517  .00000125  00000+0  54183-4 0  9992
2 27386  98.3604 300.5478 0001136  83.8244 293.5275 14.39000449247128
IDEFIX & ARIANE 42P R/B 
1 27422U 02021B   25349.79972612  .00000296  00000+0  12901-3 0  9990
2 27422  98.5788 284.4509 0012958  75.4567 284.8052 14.30952685232026
AQUA                    
1 27424U 02022A   25349.97106834  .00001024  00000+0  21484-3 0  9994
2 27424  98.4040 310.9026 0001209 114.3239 286.2663 14.61816755256507
CZ-4B R/B               
1 27432U 02024C   25349.76721272  .00000056  00000+0  51886-4 0  9995
2 27432  98.8997  38.5284 0049163 261.1251 207.4617 14.14528406217373
MIDORI II (ADEOS-II)    
1 27597U 02056A   25349.86579743  .00000261  00000+0  12070-3 0  9996
2 27597  98.7639 302.8385 0000344 153.1045 207.0155 14.29207896198324
H-2A R/B                
1 27601U 02056E   25349.89045802  .00000360  00000+0  14066-3 0  9996
2 27601  98.3069 308.5218 0071316  51.8992   6.1851 14.33678871202106
CZ-4B R/B               
1 28059U 03049C   25349.89673093  .00000365  00000+0  95256-4 0  9992
2 28059  98.6790 336.5799 0049133 126.5926 233.9805 14.54912217174411
CZ-2C R/B               
1 28222U 04012C   25349.89134832  .00031013  00000+0  44771-3 0  9997
2 28222  97.7424  42.7736 0016413 257.9207 102.0207 15.55764180191215
SL-16 R/B               
1 28353U 04021B   25349.87433903 -.00000217  00000+0 -87950-4 0  9992
2 28353  71.0012  48.3875 0005117 195.2966 164.8002 14.14579506110983
CZ-4B R/B               
1 28415U 04035C   25349.83702756  .00006341  00000+0  23566-3 0  9991
2 28415  97.3610  20.1401 0031523 265.9085  93.8551 15.27423897167109
CZ-2C R/B               
1 28480U 04046B   25349.76374123  .00000204  00000+0  90785-4 0  9990
2 28480  98.1990 264.9536 0140379  43.4253 317.7885 14.26942457 96536
